[{"OBJECT_NAME":"STARLINK-30078","OBJECT_ID":"2023-079U","EPOCH":"2026-03-09T23:38:59.292672","MEAN_MOTION":15.27586046,"ECCENTRICITY":0.00027009,"INCLINATION":43.0071,"RA_OF_ASC_NODE":57.6934,"ARG_OF_PERICENTER":259.8532,"MEAN_ANOMALY":100.2015,"EPHEMERIS_TYPE":0,"CLASSIFICATION_TYPE":"U","NORAD_CAT_ID":56841,"ELEMENT_SET_NO":999,"REV_AT_EPOCH":15349,"BSTAR":0.00012679311,"MEAN_MOTION_DOT":3.229e-5,"MEAN_MOTION_DDOT":0},{"OBJECT_NAME":"GEOSCAN 6 (RS92S6)","OBJECT_ID":"2025-155D","EPOCH":"2026-03-09T21:52:39.201312","MEAN_MOTION":15.27985277,"ECCENTRICITY":0.00087677,"INCLINATION":97.4466,"RA_OF_ASC_NODE":37.2933,"ARG_OF_PERICENTER":153.7679,"MEAN_ANOMALY":206.4006,"EPHEMERIS_TYPE":0,"CLASSIFICATION_TYPE":"U","NORAD_CAT_ID":64879,"ELEMENT_SET_NO":999,"REV_AT_EPOCH":6559,"BSTAR":0.00053762354,"MEAN_MOTION_DOT":0.00014633,"MEAN_MOTION_DDOT":0}]
